FENGYUN 1C DEB          
1 31725U 99025CDY 17345.95227402  .00000492  00000-0  90006-3 0  9997
2 31725  99.1797 342.0123 0715340   4.9310 355.8366 12.72247655492545
